NOAA 1 [-]              
1 04793U 70106A   20092.93956795 -.00000054  00000-0 -59115-4 0  9999
2 04793 101.6627 162.3281 0032078  88.7829  82.8214 12.53993694256989
NOAA 2 (ITOS-D) [-]     
1 06235U 72082A   20092.17250110 -.00000013  00000-0  20721-3 0  9995
2 06235 101.8429  62.1399 0003984 177.1501 193.5252 12.53122313170850
NOAA 3 [-]              
1 06920U 73086A   20092.68686542 -.00000023  00000-0  16602-3 0  9993
2 06920 102.0973  64.4725 0006436 343.3757 190.0120 12.40341829100952
NOAA 4 [-]              
1 07529U 74089A   20092.16048466 -.00000020  00000-0  15951-3 0  9996
2 07529 101.8003  62.3109 0008768 210.9353 161.3568 12.53140440 75423
NOAA 5 [-]              
1 09057U 76077A   20092.76766507 -.00000009  00000-0  27217-3 0  9997
2 09057 101.9783  62.4362 0009731 189.8353 233.8009 12.37751560974149
TIROS N [P]             
1 11060U 78096A   20093.14631723 -.00000003  00000-0  20033-4 0  9995
2 11060  98.7481 152.1523 0009605 303.7837  56.2423 14.18262323357556
NOAA 6 [P]              
1 11416U 79057A   20093.02120818  .00000038  00000-0  29886-4 0  9995
2 11416  98.6557  91.8613 0011352 114.8684 245.3681 14.33571247126181
NOAA 7 [-]              
1 12553U 81059A   20093.02252048 -.00000011  00000-0  17880-4 0  9997
2 12553  99.0889 111.9424 0010612 243.1329 116.8760 14.17272693  3786
NOAA 8 [-]              
1 13923U 83022A   20092.94189354  .00000017  00000-0  24174-4 0  9999
2 13923  98.6141  79.0935 0016116  53.1181 307.1475 14.28697930927505
NOAA 9 [P]              
1 15427U 84123A   20093.00163748  .00000008  00000-0  26893-4 0  9990
2 15427  98.9332  47.0408 0013944 297.0421 104.4095 14.16093291822702
NOAA 10 [-]             
1 16969U 86073A   20093.24598764  .00000009  00000-0  20912-4 0  9991
2 16969  98.4999  86.7703 0012614 153.4604 216.8013 14.28093585746024
NOAA 11 [-]             
1 19531U 88089A   20093.03559204 -.00000010  00000-0  16039-4 0  9999
2 19531  98.4202 116.7235 0010889 349.9418  10.1537 14.15253100627009
NOAA 12 [-]             
1 21263U 91032A   20093.17971690 -.00000008  00000-0  14478-4 0  9990
2 21263  98.5095 105.3448 0013767 173.8007 186.3346 14.25911017502084
NOAA 13 [-]             
1 22739U 93050A   20092.99597371 -.00000010  00000-0  16547-4 0  9992
2 22739  98.4597 105.0509 0010392 130.5375 229.6705 14.12750810373425
NOAA 14 [-]             
1 23455U 94089A   20093.18205152 -.00000043  00000-0 -85905-6 0  9999
2 23455  98.5536 147.9549 0010522 116.4853 243.7401 14.14142238302998
NOAA 15 [B]             
1 25338U 98030A   20093.30220133  .00000034  00000-0  32765-4 0  9993
2 25338  98.7251 118.7119 0011447 121.8181 238.4115 14.25957034138389
NOAA 16 [-]             
1 26536U 00055A   20093.30188758 -.00000015  00000-0  15143-4 0  9991
2 26536  98.7393 164.1844 0009556 306.7942  53.2353 14.13248421  6981
NOAA 17 [-]             
1 27453U 02032A   20093.33471941  .00000005  00000-0  20622-4 0  9995
2 27453  98.5765  41.5430 0012839  98.2604 262.0032 14.25062148924061
NOAA 18 [B]             
1 28654U 05018A   20093.22770201  .00000087  00000-0  71764-4 0  9998
2 28654  99.0533 148.9122 0015290  87.1946 273.0975 14.12499722766255
NOAA 19 [+]             
1 33591U 09005A   20093.36789141  .00000051  00000-0  52958-4 0  9997
2 33591  99.1971  96.7322 0013008 290.7713  69.2064 14.12400904574658
SUOMI NPP [+]           
1 37849U 11061A   20093.29705453  .00000008  00000-0  24508-4 0  9990
2 37849  98.7308  32.2647 0001451  92.3342  61.0821 14.19547447436812
NOAA 20 [+]             
1 43013U 17073A   20093.37336078  .00000006  00000-0  23376-4 0  9991
2 43013  98.7120  32.5236 0001010 106.4252 253.7035 14.19550339122867
